{
"type": "FeatureCollection",
"name": " kitas",
"crs": { "type": "name", "properties": { "name": "urn:ogc:def:crs:EPSG::25833" } },
"features": [
{ "type": "Feature", "properties": { "Alter": "0", "Adresse": "Nordhauser Straße 22", "PLZ": "10589", "Telefon": "367023390", "Zeiten": "ganztags (über 7 bis höchstens 9 Stunden)", "Name": "Kita Nordhauser Straße" }, "geometry": { "type": "Point", "coordinates": [ 384983.34, 5820725.71 ] } },
{ "type": "Feature", "properties": { "Alter": "0", "Adresse": "Halemweg 22", "PLZ": "13627", "Telefon": "343557990", "Zeiten": "ganztags (über 7 bis höchstens 9 Stunden)", "Name": "Kita Halemweg" }, "geometry": { "type": "Point", "coordinates": [ 383861.263, 5822260.568 ] } },
{ "type": "Feature", "properties": { "Alter": "1", "Adresse": "Länderallee 7", "PLZ": "14052", "Telefon": "303286970", "Zeiten": "ganztags (über 7 bis höchstens 9 Stunden)", "Name": "Kita Länderallee" }, "geometry": { "type": "Point", "coordinates": [ 381960.406, 5819165.871 ] } },
{ "type": "Feature", "properties": { "Alter": "0", "Adresse": "Württembergallee 17", "PLZ": "14052", "Telefon": "303286980", "Zeiten": "erweitert (über 9 Stunden)", "Name": "Kita Württembergallee" }, "geometry": { "type": "Point", "coordinates": [ 381974.612, 5819425.54399999976 ] } },
{ "type": "Feature", "properties": { "Alter": "0", "Adresse": "Kuno-Fischer-Straße 4", "PLZ": "14057", "Telefon": "303 286 990", "Zeiten": "ganztags (über 7 bis höchstens 9 Stunden)", "Name": "Kita Lietzenburg" }, "geometry": { "type": "Point", "coordinates": [ 383902.433, 5818683.403 ] } },
{ "type": "Feature", "properties": { "Alter": "2", "Adresse": "Walter-Benjamin-Platz 7", "PLZ": "10629", "Telefon": "310078690", "Zeiten": "ganztags (über 7 bis höchstens 9 Stunden)", "Name": "Kita Walter-Benjamin-Platz" }, "geometry": { "type": "Point", "coordinates": [ 385563.129, 5818168.029 ] } },
{ "type": "Feature", "properties": { "Alter": "0", "Adresse": "Goethestraße 12", "PLZ": "10623", "Telefon": "319988940", "Zeiten": "erweitert (über 9 Stunden)", "Name": "Kita Goethestraße" }, "geometry": { "type": "Point", "coordinates": [ 385928.143, 5819032.569 ] } },
{ "type": "Feature", "properties": { "Alter": "0", "Adresse": "Richard-Wagner-Straße 20", "PLZ": "10585", "Telefon": "367023680", "Zeiten": "ganztags (über 7 bis höchstens 9 Stunden)", "Name": "Kita Richard-Wagner-Straße" }, "geometry": { "type": "Point", "coordinates": [ 385132.996, 5819552.886 ] } },
{ "type": "Feature", "properties": { "Alter": "0", "Adresse": "Schloßstraße 46", "PLZ": "14059", "Telefon": "367 023 670", "Zeiten": "ganztags (über 7 bis höchstens 9 Stunden)", "Name": "Kita Schloßstraße" }, "geometry": { "type": "Point", "coordinates": [ 384460.473, 5819612.665 ] } },
{ "type": "Feature", "properties": { "Alter": "0", "Adresse": "Bernhard-Lichtenberg-Straße 20", "PLZ": "13627", "Telefon": "367024690", "Zeiten": "ganztags (über 7 bis höchstens 9 Stunden)", "Name": "Kita Bernhard-Lichtenberg-Straße" }, "geometry": { "type": "Point", "coordinates": [ 384553.936, 5822382.574 ] } },
{ "type": "Feature", "properties": { "Alter": "0", "Adresse": "Schlüterstraße 25", "PLZ": "10629", "Telefon": "319988930", "Zeiten": "ganztags (über 7 bis höchstens 9 Stunden)", "Name": "Kita Schlüterstraße" }, "geometry": { "type": "Point", "coordinates": [ 385773.74, 5818520.149 ] } },
{ "type": "Feature", "properties": { "Alter": "0", "Adresse": "Warburgzeile 8", "PLZ": "10587", "Telefon": "343571690", "Zeiten": "erweitert (über 9 Stunden)", "Name": "Kita Warburgzeile" }, "geometry": { "type": "Point", "coordinates": [ 385432.529, 5819909.014 ] } },
{ "type": "Feature", "properties": { "Alter": "0", "Adresse": "Heydenstraße 9", "PLZ": "14199", "Telefon": "8231732", "Zeiten": "erweitert (über 9 Stunden)", "Name": "Kita Schatzinsel" }, "geometry": { "type": "Point", "coordinates": [ 383535.62, 5815202.228 ] } },
{ "type": "Feature", "properties": { "Alter": "0", "Adresse": "Prager Straße 6", "PLZ": "10779", "Telefon": "236 310 850", "Zeiten": "ganztags (über 7 bis höchstens 9 Stunden)", "Name": "Kita Prager Straße" }, "geometry": { "type": "Point", "coordinates": [ 386848.133, 5817362.40799999982 ] } },
{ "type": "Feature", "properties": { "Alter": "0", "Adresse": "Wilhelmsaue 122", "PLZ": "10715", "Telefon": "863 909 690", "Zeiten": "ganztags (über 7 bis höchstens 9 Stunden)", "Name": "Kita Wilhelmsaue" }, "geometry": { "type": "Point", "coordinates": [ 386291.614, 5816312.133 ] } },
{ "type": "Feature", "properties": { "Alter": "1", "Adresse": "Siegburger Straße 1", "PLZ": "14197", "Telefon": "897301090", "Zeiten": "erweitert (über 9 Stunden)", "Name": "Kita Siegburger Straße" }, "geometry": { "type": "Point", "coordinates": [ 385507.732, 5815351.445 ] } },
{ "type": "Feature", "properties": { "Alter": "0", "Adresse": "Livländische Straße 21", "PLZ": "10715", "Telefon": "85728743", "Zeiten": "erweitert (über 9 Stunden)", "Name": "Kita Livländische Straße" }, "geometry": { "type": "Point", "coordinates": [ 386352.579, 5815823.525 ] } },
{ "type": "Feature", "properties": { "Alter": "0", "Adresse": "Homburger Straße 19", "PLZ": "14197", "Telefon": "897301190", "Zeiten": "ganztags (über 7 bis höchstens 9 Stunden)", "Name": "Kita Homburger Straße" }, "geometry": { "type": "Point", "coordinates": [ 385606.523, 5815088.57299999986 ] } },
{ "type": "Feature", "properties": { "Alter": "0", "Adresse": "Orber Straße 13", "PLZ": "14193", "Telefon": "8973797611", "Zeiten": "ganztags (über 7 bis höchstens 9 Stunden)", "Name": "Kita Orber Straße" }, "geometry": { "type": "Point", "coordinates": [ 384311.375, 5816818.807 ] } },
{ "type": "Feature", "properties": { "Alter": "1", "Adresse": "Düsseldorfer Straße 53 A", "PLZ": "10707", "Telefon": "8811057", "Zeiten": "ganztags (über 7 bis höchstens 9 Stunden)", "Name": "Kita Düsseldorfer Straße" }, "geometry": { "type": "Point", "coordinates": [ 385594.451, 5817596.27199999988 ] } },
{ "type": "Feature", "properties": { "Alter": "0", "Adresse": "Cunostraße 9", "PLZ": "14199", "Telefon": "224452290", "Zeiten": "erweitert (über 9 Stunden)", "Name": "Kita Cunostraße" }, "geometry": { "type": "Point", "coordinates": [ 384256.562, 5815358.734 ] } },
{ "type": "Feature", "properties": { "Alter": null, "Adresse": "Rominter Allee 2", "PLZ": "14053", "Telefon": null, "Zeiten": null, "Name": "SoKi Heilpädagogische Kita Rom" }, "geometry": { "type": "Point", "coordinates": [ 381193.502583333349321, 5820080.171833333559334 ] } },
{ "type": "Feature", "properties": { "Alter": "1", "Adresse": "Haubachstraße 45", "PLZ": "10585", "Telefon": "342 98 72", "Zeiten": "ganztags (über 7 bis höchstens 9 Stunden)", "Name": "Kita Haubachstraße des Pestalozzi-Fröbel-Hauses" }, "geometry": { "type": "Point", "coordinates": [ 384603.004, 5819681.723 ] } },
{ "type": "Feature", "properties": { "Alter": "1", "Adresse": "Kastanienallee 4", "PLZ": "14050", "Telefon": "305 60 93", "Zeiten": "erweitert (über 9 Stunden)", "Name": "Kita Kastanienallee des Pestalozzi-Fröbel-Hauses" }, "geometry": { "type": "Point", "coordinates": [ 382720.174, 5820037.32299999986 ] } },
{ "type": "Feature", "properties": { "Alter": "1", "Adresse": "Olbersstraße 40", "PLZ": "10589", "Telefon": "344 94 13", "Zeiten": "erweitert (über 9 Stunden)", "Name": "Kita Olbersstraße des Pestalozzi-Fröbel-Hauses" }, "geometry": { "type": "Point", "coordinates": [ 384867.473, 5821213.659 ] } },
{ "type": "Feature", "properties": { "Alter": "1", "Adresse": "Pestalozzistraße 40", "PLZ": "10627", "Telefon": "324 08 79", "Zeiten": "erweitert (über 9 Stunden)", "Name": "Kita Pestalozzistraße des Pestalozzi-Fröbel-Hauses" }, "geometry": { "type": "Point", "coordinates": [ 384857.453, 5818900.63 ] } },
{ "type": "Feature", "properties": { "Alter": "1", "Adresse": "Schillerstraße 61", "PLZ": "10627", "Telefon": "324 80 02", "Zeiten": "ganztags (über 7 bis höchstens 9 Stunden)", "Name": "Kinder-und Familienzentrum Schillerstraße des Pestalozzi-Fröbel-Hauses" }, "geometry": { "type": "Point", "coordinates": [ 384583.328, 5819073.207 ] } },
{ "type": "Feature", "properties": { "Alter": "2", "Adresse": "Eichenallee 47", "PLZ": "14050", "Telefon": "304 05 38", "Zeiten": "erweitert (über 9 Stunden)", "Name": "Ev. Kita Neu Westend" }, "geometry": { "type": "Point", "coordinates": [ 382143.294421203434467, 5820047.855103151872754 ] } },
{ "type": "Feature", "properties": { "Alter": "2", "Adresse": "Gierkeplatz 2", "PLZ": "10585", "Telefon": "341 84 50", "Zeiten": "erweitert (über 9 Stunden)", "Name": "Ev. Kita Luisen" }, "geometry": { "type": "Point", "coordinates": [ 384836.589, 5819861.371 ] } },
{ "type": "Feature", "properties": { "Alter": "1", "Adresse": "Heckerdamm 226", "PLZ": "13627", "Telefon": "381 26 56", "Zeiten": "erweitert (über 9 Stunden)", "Name": "Ev. Kita Plötzensee" }, "geometry": { "type": "Point", "coordinates": [ 384709.462, 5822421.156 ] } },
{ "type": "Feature", "properties": { "Alter": "2", "Adresse": "Herbartstraße 5", "PLZ": "14057", "Telefon": "32671805", "Zeiten": "erweitert (über 9 Stunden)", "Name": "Ev. Kita Lietzensee" }, "geometry": { "type": "Point", "coordinates": [ 383725.586, 5818526.434 ] } },
{ "type": "Feature", "properties": { "Alter": "2", "Adresse": "Knobelsdorffstraße 74", "PLZ": "14059", "Telefon": "44 72 24 61", "Zeiten": "erweitert (über 9 Stunden)", "Name": "Ev. Kita Epiphanien" }, "geometry": { "type": "Point", "coordinates": [ 383573.535, 5819475.673 ] } },
{ "type": "Feature", "properties": { "Alter": "2", "Adresse": "Leibnizstraße 79", "PLZ": "10625", "Telefon": "318685-16", "Zeiten": "ganztags (über 7 bis höchstens 9 Stunden)", "Name": "Ev. Kita Trinitatis" }, "geometry": { "type": "Point", "coordinates": [ 385573.879, 5818914.841 ] } },
{ "type": "Feature", "properties": { "Alter": "2", "Adresse": "Maikäferpfad 28", "PLZ": "14055", "Telefon": "302 48 29", "Zeiten": "erweitert (über 9 Stunden)", "Name": "Ev. Kita Frieden" }, "geometry": { "type": "Point", "coordinates": [ 382143.965, 5817661.076 ] } },
{ "type": "Feature", "properties": { "Alter": "1", "Adresse": "Olbersstraße 15", "PLZ": "10589", "Telefon": "344 20 68", "Zeiten": "erweitert (über 9 Stunden)", "Name": "Ev. Kita Gustav-Adolf" }, "geometry": { "type": "Point", "coordinates": [ 384661.428, 5821320.848 ] } },
{ "type": "Feature", "properties": { "Alter": "1", "Adresse": "Toeplerstraße 5", "PLZ": "13627", "Telefon": "381 19 78", "Zeiten": "erweitert (über 9 Stunden)", "Name": "Ev. Kita Regenbogenland" }, "geometry": { "type": "Point", "coordinates": [ 383676.256, 5822264.548 ] } },
{ "type": "Feature", "properties": { "Alter": "1", "Adresse": "Alt-Lietzow 31", "PLZ": "10587", "Telefon": "33006802", "Zeiten": "ganztags (über 7 bis höchstens 9 Stunden)", "Name": "Kita Teresa Tauscher" }, "geometry": { "type": "Point", "coordinates": [ 385362.828, 5820128.335 ] } },
{ "type": "Feature", "properties": { "Alter": "1", "Adresse": "Klausenerplatz 12", "PLZ": "14059", "Telefon": "322 15 07", "Zeiten": "ganztags (über 7 bis höchstens 9 Stunden)", "Name": "Kita der Kath. Kirchengem. St. Kamilus" }, "geometry": { "type": "Point", "coordinates": [ 384074.417, 5819994.552 ] } },
{ "type": "Feature", "properties": { "Alter": "1", "Adresse": "Preußenallee 25", "PLZ": "14052", "Telefon": "3054749", "Zeiten": "ganztags (über 7 bis höchstens 9 Stunden)", "Name": "Kita Heilig Geist" }, "geometry": { "type": "Point", "coordinates": [ 381864.77, 5819539.758 ] } },
{ "type": "Feature", "properties": { "Alter": "1", "Adresse": "Witzlebenstraße 27", "PLZ": "14057", "Telefon": "3216474", "Zeiten": "ganztags (über 7 bis höchstens 9 Stunden)", "Name": "Kita der Kath. Kirchengem. St. Canisius" }, "geometry": { "type": "Point", "coordinates": [ 384216.29, 5818840.247 ] } },
{ "type": "Feature", "properties": { "Alter": "1", "Adresse": "Alt-Lietzow 7", "PLZ": "10587", "Telefon": "342 10 17", "Zeiten": "ganztags (über 7 bis höchstens 9 Stunden)", "Name": "EiKiTa Pünktchen" }, "geometry": { "type": "Point", "coordinates": [ 385184.459, 5820038.26599999983 ] } },
{ "type": "Feature", "properties": { "Alter": "1", "Adresse": "Brauhofstraße 2 A", "PLZ": "10587", "Telefon": "0178 1026687", "Zeiten": "ganztags (über 7 bis höchstens 9 Stunden)", "Name": "EKT Pezzettino" }, "geometry": { "type": "Point", "coordinates": [ 385022.088, 5820147.71899999958 ] } },
{ "type": "Feature", "properties": { "Alter": "1", "Adresse": "Roscherstraße 14", "PLZ": "10629", "Telefon": "3231613", "Zeiten": "ganztags (über 7 bis höchstens 9 Stunden)", "Name": "EKT - Droysen-Mäuse" }, "geometry": { "type": "Point", "coordinates": [ 384760.313, 5818119.756 ] } },
{ "type": "Feature", "properties": { "Alter": "2", "Adresse": "Eichkatzweg 11", "PLZ": "14055", "Telefon": "3018968", "Zeiten": "ganztags (über 7 bis höchstens 9 Stunden)", "Name": "EKT - Eichkatzweg" }, "geometry": { "type": "Point", "coordinates": [ 382296.311, 5817598.716 ] } },
{ "type": "Feature", "properties": { "Alter": "1", "Adresse": "Fredericiastraße 30", "PLZ": "14059", "Telefon": "3017791", "Zeiten": "ganztags (über 7 bis höchstens 9 Stunden)", "Name": "EKT - Kindergruppe Lassymoss" }, "geometry": { "type": "Point", "coordinates": [ 383517.72, 5819258.11099999957 ] } },
{ "type": "Feature", "properties": { "Alter": "2", "Adresse": "Friedbergstraße 5", "PLZ": "14057", "Telefon": "324 56 43", "Zeiten": "ganztags (über 7 bis höchstens 9 Stunden)", "Name": "EKT - Kinderladen - was sonst" }, "geometry": { "type": "Point", "coordinates": [ 384450.592, 5818525.57799999975 ] } },
{ "type": "Feature", "properties": { "Alter": "0", "Adresse": "Fritschestraße 58", "PLZ": "10627", "Telefon": "324 72 66", "Zeiten": "ganztags (über 7 bis höchstens 9 Stunden)", "Name": "Kindertagesstätte Pumuckel I" }, "geometry": { "type": "Point", "coordinates": [ 384645.491521489981096, 5819070.87675644736737 ] } },
{ "type": "Feature", "properties": { "Alter": "1", "Adresse": "Sophie-Charlotten-Straße 84", "PLZ": "14059", "Telefon": "3420649", "Zeiten": "ganztags (über 7 bis höchstens 9 Stunden)", "Name": "EKT Windmühle" }, "geometry": { "type": "Point", "coordinates": [ 383849.887, 5819606.488 ] } },
{ "type": "Feature", "properties": { "Alter": "1", "Adresse": "Galvanistraße 14", "PLZ": "10587", "Telefon": "3425111", "Zeiten": "ganztags (über 7 bis höchstens 9 Stunden)", "Name": "EKT Galvanistr. 14" }, "geometry": { "type": "Point", "coordinates": [ 385731.305, 5820077.996 ] } },
{ "type": "Feature", "properties": { "Alter": "1", "Adresse": "Galvanistraße 15", "PLZ": "10587", "Telefon": "3429718", "Zeiten": "ganztags (über 7 bis höchstens 9 Stunden)", "Name": "Kita Galvanistraße" }, "geometry": { "type": "Point", "coordinates": [ 385724.995, 5820067.836 ] } },
{ "type": "Feature", "properties": { "Alter": "1", "Adresse": "Spandauer Damm 65", "PLZ": "14059", "Telefon": "3225112", "Zeiten": "ganztags (über 7 bis höchstens 9 Stunden)", "Name": "EKT Grüne Erdferkel" }, "geometry": { "type": "Point", "coordinates": [ 383835.893, 5820105.471 ] } },
{ "type": "Feature", "properties": { "Alter": "1", "Adresse": "Goethestraße 13", "PLZ": "10623", "Telefon": "312 33 09", "Zeiten": "ganztags (über 7 bis höchstens 9 Stunden)", "Name": "EKT - Kinderladen 1 Goethestraße" }, "geometry": { "type": "Point", "coordinates": [ 385881.77, 5818995.807595988735557 ] } },
{ "type": "Feature", "properties": { "Alter": "1", "Adresse": "Haeselerstraße 7 A", "PLZ": "14050", "Telefon": "3015513", "Zeiten": "ganztags (über 7 bis höchstens 9 Stunden)", "Name": "EKT Grünes Nashorn" }, "geometry": { "type": "Point", "coordinates": [ 383303.819, 5819544.70799999963 ] } },
{ "type": "Feature", "properties": { "Alter": "1", "Adresse": "Harbigstraße 14", "PLZ": "14055", "Telefon": "3016926", "Zeiten": "ganztags (über 7 bis höchstens 9 Stunden)", "Name": "EKT - Eichhörnchen" }, "geometry": { "type": "Point", "coordinates": [ 382113.656, 5818298.72 ] } },
{ "type": "Feature", "properties": { "Alter": "1", "Adresse": "Holtzendorffstraße 14", "PLZ": "14057", "Telefon": "22466696", "Zeiten": "ganztags (über 7 bis höchstens 9 Stunden)", "Name": "EKT - Flitzpiepen" }, "geometry": { "type": "Point", "coordinates": [ 384275.665, 5818574.807 ] } },
{ "type": "Feature", "properties": { "Alter": "1", "Adresse": "Nehringstraße 19", "PLZ": "14059", "Telefon": "3217086", "Zeiten": "ganztags (über 7 bis höchstens 9 Stunden)", "Name": "EKT Firlefanz" }, "geometry": { "type": "Point", "coordinates": [ 384267.888, 5819606.518 ] } },
{ "type": "Feature", "properties": { "Alter": "1", "Adresse": "Kaiser-Friedrich-Straße 60", "PLZ": "10627", "Telefon": "324 70 52", "Zeiten": "ganztags (über 7 bis höchstens 9 Stunden)", "Name": "EKT - Yoyo" }, "geometry": { "type": "Point", "coordinates": [ 384790.666, 5818827.528 ] } },
{ "type": "Feature", "properties": { "Alter": "1", "Adresse": "Sophie-Charlotten-Straße 83 B", "PLZ": "14059", "Telefon": "3010 5498", "Zeiten": "ganztags (über 7 bis höchstens 9 Stunden)", "Name": "EKT Bollerwagen Charlottenburg" }, "geometry": { "type": "Point", "coordinates": [ 383940.71, 5819591.74299999978 ] } },
{ "type": "Feature", "properties": { "Alter": "1", "Adresse": "Knobelsdorffstraße 24", "PLZ": "14059", "Telefon": "3216235", "Zeiten": "ganztags (über 7 bis höchstens 9 Stunden)", "Name": "EKT - Kartoffelladen" }, "geometry": { "type": "Point", "coordinates": [ 384164.727, 5819518.456 ] } },
{ "type": "Feature", "properties": { "Alter": "2", "Adresse": "Nehringstraße 16 A", "PLZ": "14059", "Telefon": "322 7864", "Zeiten": "ganztags (über 7 bis höchstens 9 Stunden)", "Name": "EKT - Kinderbegegnungsstätte Atatürk" }, "geometry": { "type": "Point", "coordinates": [ 384273.789, 5819545.696 ] } },
{ "type": "Feature", "properties": { "Alter": "1", "Adresse": "Suarezstraße 54", "PLZ": "14057", "Telefon": "321 35 96", "Zeiten": "ganztags (über 7 bis höchstens 9 Stunden)", "Name": "Kinderladen \"Geierbande\"" }, "geometry": { "type": "Point", "coordinates": [ 384387.574, 5818983.82199999969 ] } },
{ "type": "Feature", "properties": { "Alter": "1", "Adresse": "Neufertstraße 12", "PLZ": "14059", "Telefon": "3258128", "Zeiten": "ganztags (über 7 bis höchstens 9 Stunden)", "Name": "EKT - Drunter und Drüber" }, "geometry": { "type": "Point", "coordinates": [ 384263.257, 5819985.87399999984 ] } },
{ "type": "Feature", "properties": { "Alter": "1", "Adresse": "Rönnestraße 18", "PLZ": "14057", "Telefon": "322 82 98", "Zeiten": "ganztags (über 7 bis höchstens 9 Stunden)", "Name": "EKT - Rönne" }, "geometry": { "type": "Point", "coordinates": [ 384175.071, 5818386.32199999969 ] } },
{ "type": "Feature", "properties": { "Alter": "1", "Adresse": "Schillerstraße 21", "PLZ": "10625", "Telefon": "3121122", "Zeiten": "ganztags (über 7 bis höchstens 9 Stunden)", "Name": "Kinderladen Purzelbaum" }, "geometry": { "type": "Point", "coordinates": [ 385552.304, 5819182.53899999987 ] } },
{ "type": "Feature", "properties": { "Alter": "1", "Adresse": "Schillerstraße 84", "PLZ": "10627", "Telefon": "312 86 70", "Zeiten": "ganztags (über 7 bis höchstens 9 Stunden)", "Name": "EKT - Wusel" }, "geometry": { "type": "Point", "coordinates": [ 385120.36, 5819102.599 ] } },
{ "type": "Feature", "properties": { "Alter": "1", "Adresse": "Sophie-Charlotten-Straße 84 A", "PLZ": "14059", "Telefon": "3223450", "Zeiten": "ganztags (über 7 bis höchstens 9 Stunden)", "Name": "EKT Gemeinnütziger Charlottenburger Kila" }, "geometry": { "type": "Point", "coordinates": [ 383846.675, 5819626.173 ] } },
{ "type": "Feature", "properties": { "Alter": "1", "Adresse": "Stuttgarter Platz 20", "PLZ": "10627", "Telefon": "324 65 21", "Zeiten": "ganztags (über 7 bis höchstens 9 Stunden)", "Name": "EKT - Firlefanz" }, "geometry": { "type": "Point", "coordinates": [ 384581.107, 5818581.93099999987 ] } },
{ "type": "Feature", "properties": { "Alter": "1", "Adresse": "Waldschulallee 75", "PLZ": "14055", "Telefon": "301 74 22", "Zeiten": "ganztags (über 7 bis höchstens 9 Stunden)", "Name": "Kinderhaus Waldschulallee" }, "geometry": { "type": "Point", "coordinates": [ 381830.105146131827496, 5818315.944392549805343 ] } },
{ "type": "Feature", "properties": { "Alter": "2", "Adresse": "Fraunhoferstraße 26", "PLZ": "10587", "Telefon": "348 25 12", "Zeiten": "ganztags (über 7 bis höchstens 9 Stunden)", "Name": "EKT - Maikäfer" }, "geometry": { "type": "Point", "coordinates": [ 385903.619, 5819704.514 ] } },
{ "type": "Feature", "properties": { "Alter": "0", "Adresse": "Angerburger Allee 56", "PLZ": "14055", "Telefon": "3081 0813", "Zeiten": "ganztags (über 7 bis höchstens 9 Stunden)", "Name": "Ev. Kita Grünes Dreieck" }, "geometry": { "type": "Point", "coordinates": [ 379368.63, 5819357.78 ] } },
{ "type": "Feature", "properties": { "Alter": "2", "Adresse": "Eichenallee 53", "PLZ": "14050", "Telefon": "304 89 69", "Zeiten": "halbtags (mindestens 4 bis höchstens 5 Stunden)", "Name": "Ev. Halbtagskita Neu Westend" }, "geometry": { "type": "Point", "coordinates": [ 382139.373, 5820040.547 ] } },
{ "type": "Feature", "properties": { "Alter": "0", "Adresse": "Rominter Allee 2", "PLZ": "14053", "Telefon": "305 10 35", "Zeiten": "ganztags (über 7 bis höchstens 9 Stunden)", "Name": "KiTa Rominter Allee" }, "geometry": { "type": "Point", "coordinates": [ 381196.942166666674893, 5820060.328083333559334 ] } },
{ "type": "Feature", "properties": { "Alter": "2", "Adresse": "Gierkezeile 42", "PLZ": "10585", "Telefon": "342 50 46", "Zeiten": "ganztags (über 7 bis höchstens 9 Stunden)", "Name": "EKT - Karamell" }, "geometry": { "type": "Point", "coordinates": [ 384831.803524355345871, 5819987.239449856802821 ] } },
{ "type": "Feature", "properties": { "Alter": "2", "Adresse": "Holtzendorffstraße 3", "PLZ": "14057", "Telefon": "321 17 80", "Zeiten": "ganztags (über 7 bis höchstens 9 Stunden)", "Name": "EKT Ingrids Kindergarten" }, "geometry": { "type": "Point", "coordinates": [ 384245.798, 5818523.474 ] } },
{ "type": "Feature", "properties": { "Alter": "1", "Adresse": "Mierendorffstraße 21", "PLZ": "10589", "Telefon": "54469766", "Zeiten": "erweitert (über 9 Stunden)", "Name": "EKT - CIP City-Initiative f. Eltern-  und Kinder-Projekte" }, "geometry": { "type": "Point", "coordinates": [ 384817.278, 5820664.473 ] } },
{ "type": "Feature", "properties": { "Alter": "1", "Adresse": "Eosanderstraße 13", "PLZ": "10587", "Telefon": "3427060", "Zeiten": "ganztags (über 7 bis höchstens 9 Stunden)", "Name": "EKT - Kindergarten am Schloß Charlottenburg" }, "geometry": { "type": "Point", "coordinates": [ 384773.386, 5820284.114 ] } },
{ "type": "Feature", "properties": { "Alter": "1", "Adresse": "Witzlebenstraße 37", "PLZ": "14057", "Telefon": "321 13 62", "Zeiten": "ganztags (über 7 bis höchstens 9 Stunden)", "Name": "Kindertagesstätte Pumuckel" }, "geometry": { "type": "Point", "coordinates": [ 384304.866, 5819113.53 ] } },
{ "type": "Feature", "properties": { "Alter": "0", "Adresse": "Marchstraße 8", "PLZ": "10587", "Telefon": "93939-8450", "Zeiten": "ganztags (über 7 bis höchstens 9 Stunden)", "Name": "Kita an der TU Berlin" }, "geometry": { "type": "Point", "coordinates": [ 386355.796, 5819599.48599999957 ] } },
{ "type": "Feature", "properties": { "Alter": "1", "Adresse": "Lohmeyerstraße 21", "PLZ": "10587", "Telefon": "342 70 60", "Zeiten": "ganztags (über 7 bis höchstens 9 Stunden)", "Name": "EKT - Kindergarten am Schloß Charlottenburg" }, "geometry": { "type": "Point", "coordinates": [ 384774.368, 5820242.75499999989 ] } },
{ "type": "Feature", "properties": { "Alter": "1", "Adresse": "Knobelsdorffstraße 20", "PLZ": "14059", "Telefon": "321 34 92", "Zeiten": "ganztags (über 7 bis höchstens 9 Stunden)", "Name": "Kita Sanierungsgebiet Klausener Platz" }, "geometry": { "type": "Point", "coordinates": [ 384202.008, 5819521.36799999978 ] } },
{ "type": "Feature", "properties": { "Alter": "1", "Adresse": "Lohmeyerstraße 12", "PLZ": "10587", "Telefon": "3427060", "Zeiten": "ganztags (über 7 bis höchstens 9 Stunden)", "Name": "EKT - Kindergarten am Schloß Charlottenburg" }, "geometry": { "type": "Point", "coordinates": [ 384804.149, 5820240.132 ] } },
{ "type": "Feature", "properties": { "Alter": "1", "Adresse": "Gierkezeile 42", "PLZ": "10585", "Telefon": "341 28 60", "Zeiten": "ganztags (über 7 bis höchstens 9 Stunden)", "Name": "EKT - Sonnenkinder" }, "geometry": { "type": "Point", "coordinates": [ 384820.574, 5819984.744 ] } },
{ "type": "Feature", "properties": { "Alter": "1", "Adresse": "Schloßstraße 16 C", "PLZ": "14059", "Telefon": "322 81 02", "Zeiten": "ganztags (über 7 bis höchstens 9 Stunden)", "Name": "Kita Sanierungsgebiet Klausener Platz" }, "geometry": { "type": "Point", "coordinates": [ 384336.43, 5819679.944 ] } },
{ "type": "Feature", "properties": { "Alter": "1", "Adresse": "Dernburgstraße 57", "PLZ": "14057", "Telefon": "325 45 65", "Zeiten": "ganztags (über 7 bis höchstens 9 Stunden)", "Name": "EKT - Mappagei" }, "geometry": { "type": "Point", "coordinates": [ 383500.165, 5818689.08299999963 ] } },
{ "type": "Feature", "properties": { "Alter": "1", "Adresse": "Kaiserin-Augusta-Allee 41", "PLZ": "10589", "Telefon": "34504564", "Zeiten": "ganztags (über 7 bis höchstens 9 Stunden)", "Name": "EKT - Gesellschaft f.intern.Kultur- u.Bildungsarbeit" }, "geometry": { "type": "Point", "coordinates": [ 385368.035, 5820876.0 ] } },
{ "type": "Feature", "properties": { "Alter": "1", "Adresse": "Schillerstraße 64", "PLZ": "10627", "Telefon": "323 25 85", "Zeiten": "erweitert (über 9 Stunden)", "Name": "EKT - Kulturküken" }, "geometry": { "type": "Point", "coordinates": [ 384697.052, 5819080.212 ] } },
{ "type": "Feature", "properties": { "Alter": "1", "Adresse": "Saatwinkler Damm 42", "PLZ": "13627", "Telefon": "3831195", "Zeiten": "erweitert (über 9 Stunden)", "Name": "Luftikus Kindergarten" }, "geometry": { "type": "Point", "coordinates": [ 385956.432, 5823141.19199999981 ] } },
{ "type": "Feature", "properties": { "Alter": "0", "Adresse": "Wielandstraße 40", "PLZ": "10629", "Telefon": "22190274", "Zeiten": "ganztags (über 7 bis höchstens 9 Stunden)", "Name": "Kindergarten Schlumpfenland e.V." }, "geometry": { "type": "Point", "coordinates": [ 385692.021, 5818518.60699999984 ] } },
{ "type": "Feature", "properties": { "Alter": "1", "Adresse": "Oldenburgallee 44", "PLZ": "14052", "Telefon": "3081 4813", "Zeiten": "ganztags (über 7 bis höchstens 9 Stunden)", "Name": "Waldorfkindergarten Westend" }, "geometry": { "type": "Point", "coordinates": [ 381760.087, 5819371.62799999956 ] } },
{ "type": "Feature", "properties": { "Alter": "0", "Adresse": "Sophie-Charlotten-Straße 113", "PLZ": "14059", "Telefon": "30112596", "Zeiten": "erweitert (über 9 Stunden)", "Name": "Kita GIRASOLES-SONNENBLUMEN" }, "geometry": { "type": "Point", "coordinates": [ 383725.279, 5820389.29 ] } },
{ "type": "Feature", "properties": { "Alter": "0", "Adresse": "Fritschestraße 58", "PLZ": "10627", "Telefon": "324 72 66", "Zeiten": "ganztags (über 7 bis höchstens 9 Stunden)", "Name": "Kindertagesstätte Pumuckel II" }, "geometry": { "type": "Point", "coordinates": [ 384646.561, 5819058.756 ] } },
{ "type": "Feature", "properties": { "Alter": "1", "Adresse": "Friedbergstraße 47", "PLZ": "14057", "Telefon": "30824909", "Zeiten": "ganztags (über 7 bis höchstens 9 Stunden)", "Name": "EKT Coquelicot" }, "geometry": { "type": "Point", "coordinates": [ 384039.715, 5818413.74799999967 ] } },
{ "type": "Feature", "properties": { "Alter": "1", "Adresse": "Lyckallee 30", "PLZ": "14055", "Telefon": "304 49 90", "Zeiten": "ganztags (über 7 bis höchstens 9 Stunden)", "Name": "Kindergarten der Schele-Schule" }, "geometry": { "type": "Point", "coordinates": [ 381102.443, 5818780.834 ] } },
{ "type": "Feature", "properties": { "Alter": "0", "Adresse": "Spandauer Damm 220", "PLZ": "14052", "Telefon": "3267601", "Zeiten": "ganztags (über 7 bis höchstens 9 Stunden)", "Name": "Jüdischer Kindergarten Gan Israel" }, "geometry": { "type": "Point", "coordinates": [ 381813.648, 5820807.06099999975 ] } },
{ "type": "Feature", "properties": { "Alter": "1", "Adresse": "Goethestraße 13", "PLZ": "10623", "Telefon": "312 33 09", "Zeiten": "ganztags (über 7 bis höchstens 9 Stunden)", "Name": "EKT - Kinderladen Goethestraße (EG links)" }, "geometry": { "type": "Point", "coordinates": [ 385881.77, 5818988.143 ] } },
{ "type": "Feature", "properties": { "Alter": "0", "Adresse": "Nußbaumallee 3", "PLZ": "14050", "Telefon": "36418716", "Zeiten": "ganztags (über 7 bis höchstens 9 Stunden)", "Name": "Kita Sonnenblume" }, "geometry": { "type": "Point", "coordinates": [ 383030.253, 5819987.286 ] } },
{ "type": "Feature", "properties": { "Alter": "0", "Adresse": "Flatowallee 24", "PLZ": "14055", "Telefon": "30834998", "Zeiten": "erweitert (über 9 Stunden)", "Name": "Die wilden Westender" }, "geometry": { "type": "Point", "coordinates": [ 380923.501, 5819349.49 ] } },
{ "type": "Feature", "properties": { "Alter": "1", "Adresse": "Olympischer Platz 5", "PLZ": "14053", "Telefon": "30 68 81 94", "Zeiten": "ganztags (über 7 bis höchstens 9 Stunden)", "Name": "Kita Kinder in Bewegung (KiB)" }, "geometry": { "type": "Point", "coordinates": [ 380780.381, 5819817.23699999973 ] } },
{ "type": "Feature", "properties": { "Alter": "1,5", "Adresse": "Brahestraße 13", "PLZ": "10589", "Telefon": "34093605", "Zeiten": "erweitert (über 9 Stunden)", "Name": "EKT - Regenbogen-Kidz" }, "geometry": { "type": "Point", "coordinates": [ 384650.683, 5821134.55399999954 ] } },
{ "type": "Feature", "properties": { "Alter": "1", "Adresse": "Kaiser-Friedrich-Straße 100", "PLZ": "10585", "Telefon": "44036272", "Zeiten": "ganztags (über 7 bis höchstens 9 Stunden)", "Name": "Kita Fridolin Kirschkern" }, "geometry": { "type": "Point", "coordinates": [ 384708.951, 5819874.99299999978 ] } },
{ "type": "Feature", "properties": { "Alter": "0", "Adresse": "Kaiser-Friedrich-Straße 13", "PLZ": "10585", "Telefon": "34359898", "Zeiten": "ganztags (über 7 bis höchstens 9 Stunden)", "Name": "Kita Kaiser-Friedrich-Straße" }, "geometry": { "type": "Point", "coordinates": [ 384682.019, 5819701.71499999985 ] } },
{ "type": "Feature", "properties": { "Alter": "1", "Adresse": "Kuno-Fischer-Straße 15", "PLZ": "14057", "Telefon": "3216671", "Zeiten": "ganztags (über 7 bis höchstens 9 Stunden)", "Name": "Kinderladen Lietzenseesterne" }, "geometry": { "type": "Point", "coordinates": [ 384000.581, 5818460.57699999958 ] } },
{ "type": "Feature", "properties": { "Alter": "1", "Adresse": "Gierkezeile 30", "PLZ": "10585", "Telefon": "657 99 680", "Zeiten": "ganztags (über 7 bis höchstens 9 Stunden)", "Name": "EKT EL Carrusel" }, "geometry": { "type": "Point", "coordinates": [ 384843.835, 5819748.37899999972 ] } },
{ "type": "Feature", "properties": { "Alter": "2", "Adresse": "Gervinusstraße 17", "PLZ": "10629", "Telefon": "4470 1001", "Zeiten": "ganztags (über 7 bis höchstens 9 Stunden)", "Name": "Kita WHITE COCKATOO - Internationaler Kindergarten" }, "geometry": { "type": "Point", "coordinates": [ 384605.026, 5818329.359 ] } },
{ "type": "Feature", "properties": { "Alter": "1", "Adresse": "Wielandstraße 13", "PLZ": "10629", "Telefon": "8731502", "Zeiten": "ganztags (über 7 bis höchstens 9 Stunden)", "Name": "Kita el caracol  bilingualer Kindergarten spanisch\/deutsch" }, "geometry": { "type": "Point", "coordinates": [ 385649.578, 5818405.34 ] } },
{ "type": "Feature", "properties": { "Alter": "1", "Adresse": "Danckelmannstraße 38", "PLZ": "14059", "Telefon": "89393135", "Zeiten": "ganztags (über 7 bis höchstens 9 Stunden)", "Name": "Las Abejitas" }, "geometry": { "type": "Point", "coordinates": [ 384058.802, 5819382.571 ] } },
{ "type": "Feature", "properties": { "Alter": "1", "Adresse": "Mierendorffplatz 14", "PLZ": "10589", "Telefon": "49803789", "Zeiten": "ganztags (über 7 bis höchstens 9 Stunden)", "Name": "Kita Remmi-Demmi" }, "geometry": { "type": "Point", "coordinates": [ 385022.423, 5820839.17 ] } },
{ "type": "Feature", "properties": { "Alter": "1", "Adresse": "Witzlebenstraße 17", "PLZ": "14057", "Telefon": "31806813", "Zeiten": "ganztags (über 7 bis höchstens 9 Stunden)", "Name": "Kinderladen Umme Ecke" }, "geometry": { "type": "Point", "coordinates": [ 384132.932, 5818693.07 ] } },
{ "type": "Feature", "properties": { "Alter": "1", "Adresse": "Mindener Straße 11", "PLZ": "10589", "Telefon": "76231387", "Zeiten": "ganztags (über 7 bis höchstens 9 Stunden)", "Name": "Cheburashka-Charlottenburg" }, "geometry": { "type": "Point", "coordinates": [ 384595.51, 5820831.666 ] } },
{ "type": "Feature", "properties": { "Alter": "1", "Adresse": "Sophie-Charlotten-Straße 85", "PLZ": "14059", "Telefon": null, "Zeiten": "ganztags (über 7 bis höchstens 9 Stunden)", "Name": "Kita - Gemeinnütziger Charlottenburger Kinderladen" }, "geometry": { "type": "Point", "coordinates": [ 383843.276, 5819646.98 ] } },
{ "type": "Feature", "properties": { "Alter": "1", "Adresse": "Dahlmannstraße 9", "PLZ": "10629", "Telefon": "50562237", "Zeiten": "ganztags (über 7 bis höchstens 9 Stunden)", "Name": "Kita Sahne-Teufel" }, "geometry": { "type": "Point", "coordinates": [ 384855.855, 5818166.48099999968 ] } },
{ "type": "Feature", "properties": { "Alter": "1", "Adresse": "Pestalozzistraße 6", "PLZ": "10625", "Telefon": "31 10 26 93", "Zeiten": "ganztags (über 7 bis höchstens 9 Stunden)", "Name": "Kita Pestalozzistraße" }, "geometry": { "type": "Point", "coordinates": [ 385908.738, 5818831.996 ] } },
{ "type": "Feature", "properties": { "Alter": "1", "Adresse": "Friedbergstraße 41", "PLZ": "14057", "Telefon": "33 00 85 15", "Zeiten": "ganztags (über 7 bis höchstens 9 Stunden)", "Name": "Kita Canicas" }, "geometry": { "type": "Point", "coordinates": [ 384092.046, 5818425.098 ] } },
{ "type": "Feature", "properties": { "Alter": "0", "Adresse": "Wundtstraße 44", "PLZ": "14057", "Telefon": "030 364345910", "Zeiten": "ganztags (über 7 bis höchstens 9 Stunden)", "Name": "Kita Wundtstraße" }, "geometry": { "type": "Point", "coordinates": [ 383789.883133460010868, 5819073.083797412924469 ] } },
{ "type": "Feature", "properties": { "Alter": "2", "Adresse": "Akazienallee 34", "PLZ": "14050", "Telefon": "20917404", "Zeiten": "ganztags (über 7 bis höchstens 9 Stunden)", "Name": "Kinderladen Akazienhof" }, "geometry": { "type": "Point", "coordinates": [ 382538.782, 5820188.349 ] } },
{ "type": "Feature", "properties": { "Alter": "1", "Adresse": "Kaiser-Friedrich-Straße 18", "PLZ": "10585", "Telefon": "33848712", "Zeiten": "erweitert (über 9 Stunden)", "Name": "EKT Die wilden 25" }, "geometry": { "type": "Point", "coordinates": [ 384691.318, 5819583.04 ] } },
{ "type": "Feature", "properties": { "Alter": "0", "Adresse": "Wegelystraße 10", "PLZ": "10623", "Telefon": "64491154", "Zeiten": "erweitert (über 9 Stunden)", "Name": "Evangelische Kita St. Ursula" }, "geometry": { "type": "Point", "coordinates": [ 386994.513, 5819642.632 ] } },
{ "type": "Feature", "properties": { "Alter": "1", "Adresse": "Goslarer Platz 6", "PLZ": "10589", "Telefon": "32513991", "Zeiten": "ganztags (über 7 bis höchstens 9 Stunden)", "Name": "Kita bewegte Kinder" }, "geometry": { "type": "Point", "coordinates": [ 385598.844, 5820703.81 ] } },
{ "type": "Feature", "properties": { "Alter": "0", "Adresse": "Bismarckstraße 25", "PLZ": "10625", "Telefon": "63962985", "Zeiten": "erweitert (über 9 Stunden)", "Name": "Die Zauberflöten - Kita an der Deutschen Oper" }, "geometry": { "type": "Point", "coordinates": [ 385433.112, 5819391.434 ] } },
{ "type": "Feature", "properties": { "Alter": "1", "Adresse": "Laubacher Straße 35", "PLZ": "14197", "Telefon": "80708028", "Zeiten": "ganztags (über 7 bis höchstens 9 Stunden)", "Name": "EKT Spreepferdchen" }, "geometry": { "type": "Point", "coordinates": [ 385898.561, 5815239.108 ] } },
{ "type": "Feature", "properties": { "Alter": "0", "Adresse": "Nordhauser Straße 30", "PLZ": "10589", "Telefon": "209665750", "Zeiten": "ganztags (über 7 bis höchstens 9 Stunden)", "Name": "Internationaler Kindergarten Multi Lingua" }, "geometry": { "type": "Point", "coordinates": [ 385280.228, 5820720.221 ] } },
{ "type": "Feature", "properties": { "Alter": "1", "Adresse": "Eosanderstraße 24", "PLZ": "10587", "Telefon": "3427060", "Zeiten": "ganztags (über 7 bis höchstens 9 Stunden)", "Name": "Kindergarten am Schloß Charlottenburg" }, "geometry": { "type": "Point", "coordinates": [ 384764.736, 5820256.44199999981 ] } },
{ "type": "Feature", "properties": { "Alter": "1", "Adresse": "Reichsstraße 15", "PLZ": "14052", "Telefon": "30103005", "Zeiten": "ganztags (über 7 bis höchstens 9 Stunden)", "Name": "Internationaler Kindergarten Sara" }, "geometry": { "type": "Point", "coordinates": [ 382297.345, 5819614.234 ] } },
{ "type": "Feature", "properties": { "Alter": "1", "Adresse": "Spandauer Damm 46", "PLZ": "14059", "Telefon": "76288763", "Zeiten": "erweitert (über 9 Stunden)", "Name": "Kita Kinder am Schloss" }, "geometry": { "type": "Point", "coordinates": [ 383993.842, 5820163.79899999965 ] } },
{ "type": "Feature", "properties": { "Alter": "1", "Adresse": "Haubachstraße 24", "PLZ": "10585", "Telefon": "91467428", "Zeiten": "ganztags (über 7 bis höchstens 9 Stunden)", "Name": "Kita Schlumpfenburg" }, "geometry": { "type": "Point", "coordinates": [ 384859.155, 5819742.338 ] } },
{ "type": "Feature", "properties": { "Alter": "1", "Adresse": "Kastanienallee 11", "PLZ": "14050", "Telefon": "30108867", "Zeiten": "ganztags (über 7 bis höchstens 9 Stunden)", "Name": "Kita Kastanie" }, "geometry": { "type": "Point", "coordinates": [ 382577.561, 5819562.939 ] } },
{ "type": "Feature", "properties": { "Alter": "2", "Adresse": "Havelchaussee 104", "PLZ": "14055", "Telefon": "35109330", "Zeiten": "ganztags (über 7 bis höchstens 9 Stunden)", "Name": "Kindertagesstätte" }, "geometry": { "type": "Point", "coordinates": [ 378526.62, 5817910.262 ] } },
{ "type": "Feature", "properties": { "Alter": "0", "Adresse": "Akazienallee 14", "PLZ": "14050", "Telefon": "30109894", "Zeiten": "ganztags (über 7 bis höchstens 9 Stunden)", "Name": "Kita Villa Grips" }, "geometry": { "type": "Point", "coordinates": [ 382885.675, 5820079.07199999969 ] } },
{ "type": "Feature", "properties": { "Alter": "1", "Adresse": "Sophie-Charlotten-Straße 88", "PLZ": "14059", "Telefon": "030-254 697 26", "Zeiten": "erweitert (über 9 Stunden)", "Name": "Heinrich-Zille-Kita" }, "geometry": { "type": "Point", "coordinates": [ 383835.278, 5819695.48199999984 ] } },
{ "type": "Feature", "properties": { "Alter": "1", "Adresse": "Waldschulallee 31", "PLZ": "14055", "Telefon": "55284041", "Zeiten": "ganztags (über 7 bis höchstens 9 Stunden)", "Name": "Sinneswandel Bilinguale Kindertagesstätte" }, "geometry": { "type": "Point", "coordinates": [ 382223.188, 5817828.637 ] } },
{ "type": "Feature", "properties": { "Alter": "0", "Adresse": "Popitzweg 1", "PLZ": "13627", "Telefon": "66933888", "Zeiten": "ganztags (über 7 bis höchstens 9 Stunden)", "Name": "Kita Zicke-Zacke" }, "geometry": { "type": "Point", "coordinates": [ 383256.554, 5822084.831 ] } },
{ "type": "Feature", "properties": { "Alter": "1", "Adresse": "Pestalozzistraße 88", "PLZ": "10625", "Telefon": null, "Zeiten": "ganztags (über 7 bis höchstens 9 Stunden)", "Name": "Kita Came-Bridge" }, "geometry": { "type": "Point", "coordinates": [ 385409.004, 5818848.46 ] } },
{ "type": "Feature", "properties": { "Alter": "1", "Adresse": "Kamminer Straße 9", "PLZ": "10589", "Telefon": "52284838", "Zeiten": "erweitert (über 9 Stunden)", "Name": "Kita Kamminer Straße" }, "geometry": { "type": "Point", "coordinates": [ 384694.827, 5820877.48699999973 ] } },
{ "type": "Feature", "properties": { "Alter": "3", "Adresse": "Waldschulallee 75", "PLZ": "14055", "Telefon": "30119443\/45", "Zeiten": "ganztags (über 7 bis höchstens 9 Stunden)", "Name": "Kindertagesstätte der Jüdischen Gemeinde zu Berlin" }, "geometry": { "type": "Point", "coordinates": [ 381824.936, 5818310.597 ] } },
{ "type": "Feature", "properties": { "Alter": "0", "Adresse": "Spandauer Damm 130", "PLZ": "14050", "Telefon": "6003002410", "Zeiten": "erweitert (über 9 Stunden)", "Name": "Kinderland Westend" }, "geometry": { "type": "Point", "coordinates": [ 383035.822, 5820193.491 ] } },
{ "type": "Feature", "properties": { "Alter": "1", "Adresse": "Mierendorffstraße 7", "PLZ": "10589", "Telefon": null, "Zeiten": "ganztags (über 7 bis höchstens 9 Stunden)", "Name": "Kükenbande 2" }, "geometry": { "type": "Point", "coordinates": [ 384734.969, 5820567.764 ] } },
{ "type": "Feature", "properties": { "Alter": "3", "Adresse": "Dickensweg 17", "PLZ": "14055", "Telefon": "35109330", "Zeiten": "erweitert (über 9 Stunden)", "Name": "Dickenskita" }, "geometry": { "type": "Point", "coordinates": [ 380332.916, 5819086.08299999963 ] } },
{ "type": "Feature", "properties": { "Alter": "0", "Adresse": "Helmholtzstraße 34", "PLZ": "10587", "Telefon": "39480700", "Zeiten": "erweitert (über 9 Stunden)", "Name": "Kita Villa Luna Berlin" }, "geometry": { "type": "Point", "coordinates": [ 386264.385, 5820363.852 ] } },
{ "type": "Feature", "properties": { "Alter": "0", "Adresse": "Nehringstraße 32", "PLZ": "14059", "Telefon": null, "Zeiten": "erweitert (über 9 Stunden)", "Name": "Die wilden 25" }, "geometry": { "type": "Point", "coordinates": [ 384238.661, 5819907.529 ] } },
{ "type": "Feature", "properties": { "Alter": "2", "Adresse": "Königin-Elisabeth-Straße 57", "PLZ": "14059", "Telefon": "76907150", "Zeiten": "ganztags (über 7 bis höchstens 9 Stunden)", "Name": "Kita Kükenbande 3" }, "geometry": { "type": "Point", "coordinates": [ 383293.28, 5820003.76499999966 ] } },
{ "type": "Feature", "properties": { "Alter": "1", "Adresse": "Marie-Elisabeth-Lüders-Straße", "PLZ": "10625", "Telefon": null, "Zeiten": "ganztags (über 7 bis höchstens 9 Stunden)", "Name": "Kindergarten Wunderinsel" }, "geometry": { "type": "Point", "coordinates": [ 385835.988, 5819455.63 ] } },
{ "type": "Feature", "properties": { "Alter": "0", "Adresse": "Nordhauser Straße 26", "PLZ": "10589", "Telefon": null, "Zeiten": "erweitert (über 9 Stunden)", "Name": "Kita Charlottenburger Teddys" }, "geometry": { "type": "Point", "coordinates": [ 385158.367, 5820724.92 ] } },
{ "type": "Feature", "properties": { "Alter": "0", "Adresse": "Eschenallee 3", "PLZ": "14050", "Telefon": null, "Zeiten": "halbtags (mindestens 4 bis höchstens 5 Stunden)", "Name": "Gemeinschaftsunterkunft Eschenallee" }, "geometry": { "type": "Point", "coordinates": [ 382528.999, 5820113.26599999983 ] } },
{ "type": "Feature", "properties": { "Alter": "0", "Adresse": "Akazienallee 36", "PLZ": "14050", "Telefon": null, "Zeiten": "erweitert (über 9 Stunden)", "Name": "Charlottenburger Teddys - Akazienallee" }, "geometry": { "type": "Point", "coordinates": [ 382502.426, 5820203.092 ] } },
{ "type": "Feature", "properties": { "Alter": "1", "Adresse": "Binger Straße 73", "PLZ": "14197", "Telefon": "8279 2238", "Zeiten": "ganztags (über 7 bis höchstens 9 Stunden)", "Name": "Kita der Ev. Kirchengemeinde Linden" }, "geometry": { "type": "Point", "coordinates": [ 385214.142, 5815190.087 ] } },
{ "type": "Feature", "properties": { "Alter": "1", "Adresse": "Elgersburger Straße 2", "PLZ": "14193", "Telefon": "825 54 34", "Zeiten": "ganztags (über 7 bis höchstens 9 Stunden)", "Name": "Ev. Kita Kreuz" }, "geometry": { "type": "Point", "coordinates": [ 383764.036, 5816146.87799999956 ] } },
{ "type": "Feature", "properties": { "Alter": "1", "Adresse": "Kirchstraße 15", "PLZ": "14199", "Telefon": "8231410", "Zeiten": "ganztags (über 7 bis höchstens 9 Stunden)", "Name": "Ev. Kita Alt-Schmargendorf" }, "geometry": { "type": "Point", "coordinates": [ 384086.061, 5815000.64599999972 ] } },
{ "type": "Feature", "properties": { "Alter": "1", "Adresse": "Koenigsallee 10 A", "PLZ": "14193", "Telefon": "8928102", "Zeiten": "ganztags (über 7 bis höchstens 9 Stunden)", "Name": "Ev. Kita Grunewald" }, "geometry": { "type": "Point", "coordinates": [ 383438.497, 5817322.18 ] } },
{ "type": "Feature", "properties": { "Alter": "1", "Adresse": "Lietzenburger Straße 39", "PLZ": "10789", "Telefon": "2360 8033", "Zeiten": "erweitert (über 9 Stunden)", "Name": "Ev. Kita Kaiser-Wilhelm-Gedächtnis" }, "geometry": { "type": "Point", "coordinates": [ 386879.713, 5817917.639 ] } },
{ "type": "Feature", "properties": { "Alter": "0", "Adresse": "Münstersche Straße 8", "PLZ": "10709", "Telefon": "863909911", "Zeiten": "ganztags (über 7 bis höchstens 9 Stunden)", "Name": "Ev. Kita Daniel" }, "geometry": { "type": "Point", "coordinates": [ 385162.348, 5817303.95299999975 ] } },
{ "type": "Feature", "properties": { "Alter": "1", "Adresse": "Paulsborner Straße 86", "PLZ": "10709", "Telefon": "8928683", "Zeiten": "ganztags (über 7 bis höchstens 9 Stunden)", "Name": "Ev. Kita Hochmeister" }, "geometry": { "type": "Point", "coordinates": [ 384851.081, 5817568.696 ] } },
{ "type": "Feature", "properties": { "Alter": "1", "Adresse": "Spessartstraße 3", "PLZ": "14197", "Telefon": "821 58 01", "Zeiten": "ganztags (über 7 bis höchstens 9 Stunden)", "Name": "Kita der Ev. Kirchengem. Vaterunser" }, "geometry": { "type": "Point", "coordinates": [ 385821.433, 5815387.347 ] } },
{ "type": "Feature", "properties": { "Alter": "2", "Adresse": "Wilhelmsaue 118", "PLZ": "10715", "Telefon": "8736640", "Zeiten": "ganztags (über 7 bis höchstens 9 Stunden)", "Name": "Ev. Kita Auen" }, "geometry": { "type": "Point", "coordinates": [ 386179.624, 5816321.706 ] } },
{ "type": "Feature", "properties": { "Alter": "1", "Adresse": "Delbrückstraße 33", "PLZ": "14193", "Telefon": "8256391", "Zeiten": "ganztags (über 7 bis höchstens 9 Stunden)", "Name": "Kath. Kita St. Karl Borromäus" }, "geometry": { "type": "Point", "coordinates": [ 383260.018, 5816239.85599999968 ] } },
{ "type": "Feature", "properties": { "Alter": "0", "Adresse": "Am Volkspark 41", "PLZ": "10715", "Telefon": "8533592", "Zeiten": "ganztags (über 7 bis höchstens 9 Stunden)", "Name": "Kindertagesstätte Heilig Kreuz" }, "geometry": { "type": "Point", "coordinates": [ 386466.899, 5816036.352 ] } },
{ "type": "Feature", "properties": { "Alter": "1", "Adresse": "Johann-Georg-Straße 8", "PLZ": "10709", "Telefon": "8906 9400", "Zeiten": "ganztags (über 7 bis höchstens 9 Stunden)", "Name": "Kita St. Albertus Magnus\/Kath. Kirchengem. St. Ludwig" }, "geometry": { "type": "Point", "coordinates": [ 384462.011, 5817658.307 ] } },
{ "type": "Feature", "properties": { "Alter": "1", "Adresse": "Ludwigkirchplatz 10", "PLZ": "10719", "Telefon": "8837000", "Zeiten": "ganztags (über 7 bis höchstens 9 Stunden)", "Name": "Kita der Kath. Kirchengem. St. Ludwig" }, "geometry": { "type": "Point", "coordinates": [ 386052.333, 5817661.508 ] } },
{ "type": "Feature", "properties": { "Alter": "0", "Adresse": "Delbrückstraße 8", "PLZ": "14193", "Telefon": "891 67 48", "Zeiten": "erweitert (über 9 Stunden)", "Name": "Kita der Jüdischen Gemeinde zu Berlin" }, "geometry": { "type": "Point", "coordinates": [ 383094.874, 5816499.859 ] } },
{ "type": "Feature", "properties": { "Alter": "1", "Adresse": "Aachener Straße 42", "PLZ": "10713", "Telefon": "8222769", "Zeiten": "ganztags (über 7 bis höchstens 9 Stunden)", "Name": "EKT - Kleine Panther" }, "geometry": { "type": "Point", "coordinates": [ 385835.886, 5815976.371 ] } },
{ "type": "Feature", "properties": { "Alter": "1", "Adresse": "Am Volkspark 83", "PLZ": "10715", "Telefon": "8539783", "Zeiten": "ganztags (über 7 bis höchstens 9 Stunden)", "Name": "EKT - Chiquitita" }, "geometry": { "type": "Point", "coordinates": [ 386003.479, 5816080.11099999957 ] } },
{ "type": "Feature", "properties": { "Alter": "1", "Adresse": "Zühringerstraße 14", "PLZ": "10707", "Telefon": "8731502", "Zeiten": "ganztags (über 7 bis höchstens 9 Stunden)", "Name": "Kita el caracol bilingualer Kindergarten spanisch\/deutsch" }, "geometry": { "type": "Point", "coordinates": [ 385409.241, 5817559.734 ] } },
{ "type": "Feature", "properties": { "Alter": "1", "Adresse": "Binger Straße 65", "PLZ": "14197", "Telefon": "8215091", "Zeiten": "ganztags (über 7 bis höchstens 9 Stunden)", "Name": "EKT - Kinderhaus Binger Straße" }, "geometry": { "type": "Point", "coordinates": [ 385196.583, 5814890.10599999968 ] } },
{ "type": "Feature", "properties": { "Alter": "1", "Adresse": "Fechnerstraße 13", "PLZ": "10717", "Telefon": "8732982", "Zeiten": "ganztags (über 7 bis höchstens 9 Stunden)", "Name": "EKT - Donnerbagger" }, "geometry": { "type": "Point", "coordinates": [ 386032.226, 5816659.47 ] } },
{ "type": "Feature", "properties": { "Alter": "0", "Adresse": "Gasteiner Straße 14", "PLZ": "10717", "Telefon": "8737670", "Zeiten": "ganztags (über 7 bis höchstens 9 Stunden)", "Name": "EKT - Kiga für musische und sprachliche Erziehung" }, "geometry": { "type": "Point", "coordinates": [ 385976.827, 5816621.387 ] } },
{ "type": "Feature", "properties": { "Alter": "1", "Adresse": "Sigmaringer Straße 16", "PLZ": "10713", "Telefon": "8619636", "Zeiten": "ganztags (über 7 bis höchstens 9 Stunden)", "Name": "EKT Dreckspatzen" }, "geometry": { "type": "Point", "coordinates": [ 385905.548, 5816984.536 ] } },
{ "type": "Feature", "properties": { "Alter": "1", "Adresse": "Gieselerstraße 25", "PLZ": "10713", "Telefon": "8621611", "Zeiten": "ganztags (über 7 bis höchstens 9 Stunden)", "Name": "EKT Manimatschi" }, "geometry": { "type": "Point", "coordinates": [ 385786.972, 5816845.13499999978 ] } },
{ "type": "Feature", "properties": { "Alter": "1", "Adresse": "Hildegardstraße 13", "PLZ": "10715", "Telefon": "854 58 42", "Zeiten": "ganztags (über 7 bis höchstens 9 Stunden)", "Name": "EKT - Wilde Hilde" }, "geometry": { "type": "Point", "coordinates": [ 386186.19, 5815964.46499999985 ] } },
{ "type": "Feature", "properties": { "Alter": "1", "Adresse": "Schlangenbader Straße 99", "PLZ": "14197", "Telefon": "8242847", "Zeiten": "ganztags (über 7 bis höchstens 9 Stunden)", "Name": "EKT Schlange 99" }, "geometry": { "type": "Point", "coordinates": [ 385121.928, 5815482.11 ] } },
{ "type": "Feature", "properties": { "Alter": "1", "Adresse": "Pariser Straße 3", "PLZ": "10719", "Telefon": "8815796", "Zeiten": "ganztags (über 7 bis höchstens 9 Stunden)", "Name": "EKT - Finowkids" }, "geometry": { "type": "Point", "coordinates": [ 386569.187, 5817544.588 ] } },
{ "type": "Feature", "properties": { "Alter": "2", "Adresse": "Weimarische Straße 20", "PLZ": "10715", "Telefon": "853 66 55", "Zeiten": "ganztags (über 7 bis höchstens 9 Stunden)", "Name": "Montessori Kinderhaus Kipsi" }, "geometry": { "type": "Point", "coordinates": [ 386216.195, 5815706.57799999975 ] } },
{ "type": "Feature", "properties": { "Alter": "3", "Adresse": "Furtwänglerstraße 5", "PLZ": "14193", "Telefon": "8973 3343", "Zeiten": "halbtags (mindestens 4 bis höchstens 5 Stunden)", "Name": "EKG - Grunewald" }, "geometry": { "type": "Point", "coordinates": [ 382884.222, 5816255.122 ] } },
{ "type": "Feature", "properties": { "Alter": "1", "Adresse": "Mainzer Straße 25", "PLZ": "10715", "Telefon": "8536862", "Zeiten": "ganztags (über 7 bis höchstens 9 Stunden)", "Name": "Kinderladen Mainzelmännchen" }, "geometry": { "type": "Point", "coordinates": [ 386100.754, 5815756.78899999987 ] } },
{ "type": "Feature", "properties": { "Alter": "1", "Adresse": "Mehlitzstraße 8", "PLZ": "10715", "Telefon": "98350906", "Zeiten": "ganztags (über 7 bis höchstens 9 Stunden)", "Name": "EKT Wilde Hummeln" }, "geometry": { "type": "Point", "coordinates": [ 386358.183, 5816420.604 ] } },
{ "type": "Feature", "properties": { "Alter": "1", "Adresse": "Nassauische Straße 20", "PLZ": "10717", "Telefon": "8726653", "Zeiten": "ganztags (über 7 bis höchstens 9 Stunden)", "Name": "EKT Narrenfreiheit" }, "geometry": { "type": "Point", "coordinates": [ 386356.196, 5816884.602 ] } },
{ "type": "Feature", "properties": { "Alter": "1", "Adresse": "Straße am Schoelerpark 32", "PLZ": "10715", "Telefon": "8731502", "Zeiten": "ganztags (über 7 bis höchstens 9 Stunden)", "Name": "Kita el caracol bilingualer Kindergarten spanisch\/deutsch" }, "geometry": { "type": "Point", "coordinates": [ 386300.457, 5816244.716 ] } },
{ "type": "Feature", "properties": { "Alter": "1", "Adresse": "Nikolsburger Platz 6", "PLZ": "10717", "Telefon": "861 80 66", "Zeiten": "ganztags (über 7 bis höchstens 9 Stunden)", "Name": "Kita Aventura Nikolsburg" }, "geometry": { "type": "Point", "coordinates": [ 386483.857, 5817192.326 ] } },
{ "type": "Feature", "properties": { "Alter": "1", "Adresse": "Nikolsburger Straße 8", "PLZ": "10717", "Telefon": "883 34 35", "Zeiten": "ganztags (über 7 bis höchstens 9 Stunden)", "Name": "EKT - Trolle" }, "geometry": { "type": "Point", "coordinates": [ 386497.379, 5817302.55 ] } },
{ "type": "Feature", "properties": { "Alter": "1", "Adresse": "Prinzregentenstraße 90", "PLZ": "10717", "Telefon": "8531408", "Zeiten": "ganztags (über 7 bis höchstens 9 Stunden)", "Name": "EKT Prinz Güntzel" }, "geometry": { "type": "Point", "coordinates": [ 386837.916, 5816898.035842407494783 ] } },
{ "type": "Feature", "properties": { "Alter": "1", "Adresse": "Rudolf-Mosse-Straße 9", "PLZ": "14197", "Telefon": "823 69 95", "Zeiten": "ganztags (über 7 bis höchstens 9 Stunden)", "Name": "EKT - Kissi" }, "geometry": { "type": "Point", "coordinates": [ 384819.528, 5815204.89 ] } },
{ "type": "Feature", "properties": { "Alter": "1", "Adresse": "Ringbahnstraße 13", "PLZ": "10711", "Telefon": "891 39 98", "Zeiten": "ganztags (über 7 bis höchstens 9 Stunden)", "Name": "EKT - Wir um vier" }, "geometry": { "type": "Point", "coordinates": [ 383843.232, 5817808.313 ] } },
{ "type": "Feature", "properties": { "Alter": "1", "Adresse": "Sigmaringer Straße 16", "PLZ": "10713", "Telefon": "861 27 67", "Zeiten": "ganztags (über 7 bis höchstens 9 Stunden)", "Name": "Kita Eulenspiegel -  Mittelhof e.V." }, "geometry": { "type": "Point", "coordinates": [ 385917.312263610365335, 5816984.892492837272584 ] } },
{ "type": "Feature", "properties": { "Alter": "1", "Adresse": "Schweidnitzer Straße 3", "PLZ": "10709", "Telefon": "892 81 20", "Zeiten": "ganztags (über 7 bis höchstens 9 Stunden)", "Name": "Waldorfkindergarten TOMTE" }, "geometry": { "type": "Point", "coordinates": [ 384429.911, 5817434.87 ] } },
{ "type": "Feature", "properties": { "Alter": "2", "Adresse": "Weimarische Straße 5", "PLZ": "10715", "Telefon": "8537689", "Zeiten": "ganztags (über 7 bis höchstens 9 Stunden)", "Name": "EKT - Waldorfkindergarten Rosenhof" }, "geometry": { "type": "Point", "coordinates": [ 386182.807, 5815807.921 ] } },
{ "type": "Feature", "properties": { "Alter": "1", "Adresse": "Wexstraße 23", "PLZ": "10715", "Telefon": "8534966", "Zeiten": "ganztags (über 7 bis höchstens 9 Stunden)", "Name": "EKT Wexstr." }, "geometry": { "type": "Point", "coordinates": [ 386748.782, 5815604.886 ] } },
{ "type": "Feature", "properties": { "Alter": "1", "Adresse": "Wilhelmsaue 18", "PLZ": "10715", "Telefon": "8623396", "Zeiten": "ganztags (über 7 bis höchstens 9 Stunden)", "Name": "EKT Kinderland" }, "geometry": { "type": "Point", "coordinates": [ 386208.617, 5816376.778 ] } },
{ "type": "Feature", "properties": { "Alter": "1", "Adresse": "Mainzer Straße 26 A", "PLZ": "10715", "Telefon": "854 94 40", "Zeiten": "ganztags (über 7 bis höchstens 9 Stunden)", "Name": "EKT - Paul und Klärchen" }, "geometry": { "type": "Point", "coordinates": [ 386065.869, 5815757.916 ] } },
{ "type": "Feature", "properties": { "Alter": "1", "Adresse": "Wexstraße 20", "PLZ": "10715", "Telefon": "8537601", "Zeiten": "ganztags (über 7 bis höchstens 9 Stunden)", "Name": "EIKITA Felix" }, "geometry": { "type": "Point", "coordinates": [ 386845.688, 5815601.581 ] } },
{ "type": "Feature", "properties": { "Alter": "1", "Adresse": "Bismarckallee 23", "PLZ": "14193", "Telefon": "030 8968 8191", "Zeiten": "ganztags (über 7 bis höchstens 9 Stunden)", "Name": "Kita Joh. Sozialwerk" }, "geometry": { "type": "Point", "coordinates": [ 383031.664, 5816746.99199999962 ] } },
{ "type": "Feature", "properties": { "Alter": "2", "Adresse": "Mansfelder Straße 37", "PLZ": "10709", "Telefon": "861 44 40", "Zeiten": "ganztags (über 7 bis höchstens 9 Stunden)", "Name": "Waldorf-Kindergarten Mansfelder Straße" }, "geometry": { "type": "Point", "coordinates": [ 385094.732, 5816902.308 ] } },
{ "type": "Feature", "properties": { "Alter": "1", "Adresse": "Ravensberger Straße 5 B", "PLZ": "10709", "Telefon": "8926644", "Zeiten": "ganztags (über 7 bis höchstens 9 Stunden)", "Name": "Internationaler Kindergarten" }, "geometry": { "type": "Point", "coordinates": [ 385030.438, 5817590.99799999967 ] } },
{ "type": "Feature", "properties": { "Alter": "2", "Adresse": "Prinzregentenstraße 97", "PLZ": "10717", "Telefon": "218 23 14", "Zeiten": "ganztags (über 7 bis höchstens 9 Stunden)", "Name": "Kita Prinzregentenstraße" }, "geometry": { "type": "Point", "coordinates": [ 386857.87, 5817143.50299999956 ] } },
{ "type": "Feature", "properties": { "Alter": "1", "Adresse": "Brandenburgische Straße 75", "PLZ": "10713", "Telefon": "862 30 49", "Zeiten": "ganztags (über 7 bis höchstens 9 Stunden)", "Name": "EKT - Maikäfer (Gartenhaus)" }, "geometry": { "type": "Point", "coordinates": [ 385755.282, 5816656.507 ] } },
{ "type": "Feature", "properties": { "Alter": "1", "Adresse": "Koblenzer Straße 7", "PLZ": "10715", "Telefon": "8543415", "Zeiten": "ganztags (über 7 bis höchstens 9 Stunden)", "Name": "EKT - Die Lauser" }, "geometry": { "type": "Point", "coordinates": [ 386003.945, 5815755.091 ] } },
{ "type": "Feature", "properties": { "Alter": "1", "Adresse": "Hildegardstraße 16", "PLZ": "10715", "Telefon": "853 17 86", "Zeiten": "ganztags (über 7 bis höchstens 9 Stunden)", "Name": "EKT - Arche Noah" }, "geometry": { "type": "Point", "coordinates": [ 386024.626, 5815968.711 ] } },
{ "type": "Feature", "properties": { "Alter": "1", "Adresse": "Hildegardstraße 16 A", "PLZ": "10715", "Telefon": "8539160", "Zeiten": "ganztags (über 7 bis höchstens 9 Stunden)", "Name": "EKT Hildegarten" }, "geometry": { "type": "Point", "coordinates": [ 386010.749, 5815969.19 ] } },
{ "type": "Feature", "properties": { "Alter": "1", "Adresse": "Koenigsallee 35", "PLZ": "14193", "Telefon": "8263200", "Zeiten": "ganztags (über 7 bis höchstens 9 Stunden)", "Name": "EKT - Kindergruppe Hasensprung" }, "geometry": { "type": "Point", "coordinates": [ 382609.757, 5816630.23599999957 ] } },
{ "type": "Feature", "properties": { "Alter": "1", "Adresse": "Pfalzburger Straße 9", "PLZ": "10719", "Telefon": "873 83 78", "Zeiten": "ganztags (über 7 bis höchstens 9 Stunden)", "Name": "Kinderladen Phönix" }, "geometry": { "type": "Point", "coordinates": [ 386127.55, 5817779.721 ] } },
{ "type": "Feature", "properties": { "Alter": "1", "Adresse": "Johann-Georg-Straße 26", "PLZ": "10709", "Telefon": "89569229", "Zeiten": "ganztags (über 7 bis höchstens 9 Stunden)", "Name": "Kita Beerenkinder" }, "geometry": { "type": "Point", "coordinates": [ 384509.092, 5817533.603 ] } },
{ "type": "Feature", "properties": { "Alter": "1", "Adresse": "Durlacher Straße 27", "PLZ": "10715", "Telefon": "8548466", "Zeiten": "ganztags (über 7 bis höchstens 9 Stunden)", "Name": "EKT Girasole" }, "geometry": { "type": "Point", "coordinates": [ 386658.556, 5815798.83899999969 ] } },
{ "type": "Feature", "properties": { "Alter": "1", "Adresse": "Cunostraße 1", "PLZ": "14199", "Telefon": "8239774", "Zeiten": "ganztags (über 7 bis höchstens 9 Stunden)", "Name": "EKT Pünktchen und Anton" }, "geometry": { "type": "Point", "coordinates": [ 384196.181, 5815173.751 ] } },
{ "type": "Feature", "properties": { "Alter": "1", "Adresse": "Badensche Straße 29", "PLZ": "10715", "Telefon": "8623038", "Zeiten": "ganztags (über 7 bis höchstens 9 Stunden)", "Name": "Kita Asilo Italiano" }, "geometry": { "type": "Point", "coordinates": [ 386438.582, 5816434.11199999973 ] } },
{ "type": "Feature", "properties": { "Alter": "1", "Adresse": "Bundesallee 186", "PLZ": "10717", "Telefon": "85730164", "Zeiten": "ganztags (über 7 bis höchstens 9 Stunden)", "Name": "Kant-Kindergarten Bundesallee 186\/187" }, "geometry": { "type": "Point", "coordinates": [ 386704.219, 5816735.27 ] } },
{ "type": "Feature", "properties": { "Alter": "1", "Adresse": "Babelsberger Straße 40", "PLZ": "10715", "Telefon": "85072367", "Zeiten": "ganztags (über 7 bis höchstens 9 Stunden)", "Name": "EKT Land in Sicht" }, "geometry": { "type": "Point", "coordinates": [ 386981.382828080269974, 5816247.979753580875695 ] } },
{ "type": "Feature", "properties": { "Alter": "3", "Adresse": "Landhausstraße 26", "PLZ": "10717", "Telefon": "86495929", "Zeiten": "teilzeit (über 5 bis höchstens 7 Stunden)", "Name": "Kita der Schwedischen Victoriagemeinde" }, "geometry": { "type": "Point", "coordinates": [ 386546.272, 5816588.603 ] } },
{ "type": "Feature", "properties": { "Alter": "3", "Adresse": "Lentzeallee 8", "PLZ": "14195", "Telefon": "820078910", "Zeiten": "erweitert (über 9 Stunden)", "Name": "Kant-Kindergarten Lentzeallee 8 - 14" }, "geometry": { "type": "Point", "coordinates": [ 384033.192, 5814709.09399999958 ] } },
{ "type": "Feature", "properties": { "Alter": "2", "Adresse": "Kaubstraße 2", "PLZ": "10713", "Telefon": "86 20 79 01", "Zeiten": "ganztags (über 7 bis höchstens 9 Stunden)", "Name": "Kita Kaubstraße" }, "geometry": { "type": "Point", "coordinates": [ 385323.85, 5816687.334 ] } },
{ "type": "Feature", "properties": { "Alter": "1", "Adresse": "Eislebener Straße 4", "PLZ": "10789", "Telefon": "86390142", "Zeiten": "erweitert (über 9 Stunden)", "Name": "Masorti II" }, "geometry": { "type": "Point", "coordinates": [ 386973.339653295115568, 5818026.113610315136611 ] } },
{ "type": "Feature", "properties": { "Alter": "1", "Adresse": "Prinzregentenstraße 90", "PLZ": "10717", "Telefon": "8639 8078", "Zeiten": "ganztags (über 7 bis höchstens 9 Stunden)", "Name": "Kindergarten Lila Prinzregent" }, "geometry": { "type": "Point", "coordinates": [ 386837.916, 5816890.193 ] } },
{ "type": "Feature", "properties": { "Alter": "1", "Adresse": "Pfalzburger Straße 14", "PLZ": "10719", "Telefon": "8731502", "Zeiten": "ganztags (über 7 bis höchstens 9 Stunden)", "Name": "Kita el caracol bilingualer Kindergarten spanisch\/deutsch" }, "geometry": { "type": "Point", "coordinates": [ 386099.122, 5817566.13499999978 ] } },
{ "type": "Feature", "properties": { "Alter": "0", "Adresse": "Paulsborner Straße 20", "PLZ": "10709", "Telefon": "98299408", "Zeiten": "ganztags (über 7 bis höchstens 9 Stunden)", "Name": "Kita L'oiseau bleu" }, "geometry": { "type": "Point", "coordinates": [ 384486.694, 5817327.45 ] } },
{ "type": "Feature", "properties": { "Alter": "1", "Adresse": "Wiesbadener Straße 18", "PLZ": "14197", "Telefon": "81826715", "Zeiten": "ganztags (über 7 bis höchstens 9 Stunden)", "Name": "Montessori Kinderhaus im IBZ" }, "geometry": { "type": "Point", "coordinates": [ 385697.374, 5814866.71 ] } },
{ "type": "Feature", "properties": { "Alter": "1", "Adresse": "Cicerostraße 63", "PLZ": "10709", "Telefon": "8913331", "Zeiten": "ganztags (über 7 bis höchstens 9 Stunden)", "Name": "ABC-Kindergarten Birgit Döbler" }, "geometry": { "type": "Point", "coordinates": [ 384730.876, 5817772.495 ] } },
{ "type": "Feature", "properties": { "Alter": "1", "Adresse": "Schlangenbader Straße 34", "PLZ": "14197", "Telefon": "34718839", "Zeiten": "erweitert (über 9 Stunden)", "Name": "Kita Verein für berufsorientierte Kinderbetreuung" }, "geometry": { "type": "Point", "coordinates": [ 385053.255, 5814784.644 ] } },
{ "type": "Feature", "properties": { "Alter": "1", "Adresse": "Babelsberger Straße 40", "PLZ": "10715", "Telefon": "85405885", "Zeiten": "ganztags (über 7 bis höchstens 9 Stunden)", "Name": "Kita Piccolino" }, "geometry": { "type": "Point", "coordinates": [ 386972.827, 5816248.15799999982 ] } },
{ "type": "Feature", "properties": { "Alter": "1", "Adresse": "Pfalzburger Straße 62", "PLZ": "10719", "Telefon": "86399043", "Zeiten": "ganztags (über 7 bis höchstens 9 Stunden)", "Name": "Deutsch-Englischer Kindergarten Lilolei" }, "geometry": { "type": "Point", "coordinates": [ 386086.908, 5817280.008 ] } },
{ "type": "Feature", "properties": { "Alter": "1", "Adresse": "Aachener Straße 45", "PLZ": "10713", "Telefon": "89739680", "Zeiten": "ganztags (über 7 bis höchstens 9 Stunden)", "Name": "Kita AUFGEPASST" }, "geometry": { "type": "Point", "coordinates": [ 385820.731, 5816032.683 ] } },
{ "type": "Feature", "properties": { "Alter": "1", "Adresse": "Holsteinische Straße 54", "PLZ": "10717", "Telefon": "215 26 00", "Zeiten": "ganztags (über 7 bis höchstens 9 Stunden)", "Name": "EKT \"Kajtek\" - Verein zur Förderung polnischer Sprache" }, "geometry": { "type": "Point", "coordinates": [ 386233.065, 5816723.588 ] } },
{ "type": "Feature", "properties": { "Alter": "0", "Adresse": "Johann-Georg-Straße 10", "PLZ": "10709", "Telefon": "2637 3619", "Zeiten": "ganztags (über 7 bis höchstens 9 Stunden)", "Name": "Wallaby Kinderbetreuung" }, "geometry": { "type": "Point", "coordinates": [ 384434.66, 5817695.13499999978 ] } },
{ "type": "Feature", "properties": { "Alter": "1", "Adresse": "Westfälische Straße 57", "PLZ": "10711", "Telefon": "88 62 37 68", "Zeiten": "ganztags (über 7 bis höchstens 9 Stunden)", "Name": "Kookaburra Kinderbetreuung" }, "geometry": { "type": "Point", "coordinates": [ 384229.629, 5817575.154 ] } },
{ "type": "Feature", "properties": { "Alter": "1", "Adresse": "Blissestraße 45", "PLZ": "10713", "Telefon": "81487133", "Zeiten": "ganztags (über 7 bis höchstens 9 Stunden)", "Name": "Kita AUFGEPASST" }, "geometry": { "type": "Point", "coordinates": [ 385953.606, 5815862.74 ] } },
{ "type": "Feature", "properties": { "Alter": "1", "Adresse": "Holsteinische Straße 55", "PLZ": "10717", "Telefon": "86395453", "Zeiten": "erweitert (über 9 Stunden)", "Name": "Kita Ourania" }, "geometry": { "type": "Point", "coordinates": [ 386231.456, 5816701.423 ] } },
{ "type": "Feature", "properties": { "Alter": "3", "Adresse": "Nestorstraße 20", "PLZ": "10709", "Telefon": "76232335", "Zeiten": "ganztags (über 7 bis höchstens 9 Stunden)", "Name": "Kita L'oiseau bleu" }, "geometry": { "type": "Point", "coordinates": [ 384546.087, 5817375.007 ] } },
{ "type": "Feature", "properties": { "Alter": "1", "Adresse": "Koblenzer Straße 21", "PLZ": "10715", "Telefon": "81852603", "Zeiten": "ganztags (über 7 bis höchstens 9 Stunden)", "Name": "Kindergarten Schlumpfenland 2" }, "geometry": { "type": "Point", "coordinates": [ 386041.149, 5815774.076 ] } },
{ "type": "Feature", "properties": { "Alter": "2", "Adresse": "Eichhörnchensteig 3", "PLZ": "14193", "Telefon": "8261317", "Zeiten": "halbtags (mindestens 4 bis höchstens 5 Stunden)", "Name": "Waldkita Fila" }, "geometry": { "type": "Point", "coordinates": [ 382546.783, 5815109.59399999958 ] } },
{ "type": "Feature", "properties": { "Alter": "1", "Adresse": "Nachodstraße 19", "PLZ": "10779", "Telefon": "2118737", "Zeiten": "ganztags (über 7 bis höchstens 9 Stunden)", "Name": "Kita Rasselbande" }, "geometry": { "type": "Point", "coordinates": [ 386849.981, 5817407.07699999958 ] } },
{ "type": "Feature", "properties": { "Alter": "1", "Adresse": "Johann-Georg-Straße 9", "PLZ": "10709", "Telefon": "23 27 09 64", "Zeiten": "ganztags (über 7 bis höchstens 9 Stunden)", "Name": "KangarooGarden - Internationaler Kindergarten" }, "geometry": { "type": "Point", "coordinates": [ 384448.539, 5817676.44199999981 ] } },
{ "type": "Feature", "properties": { "Alter": "1", "Adresse": "Fechnerstraße 18", "PLZ": "10717", "Telefon": "86008472", "Zeiten": "ganztags (über 7 bis höchstens 9 Stunden)", "Name": "Kita Raduga" }, "geometry": { "type": "Point", "coordinates": [ 386020.246, 5816706.73199999984 ] } },
{ "type": "Feature", "properties": { "Alter": "1", "Adresse": "Nestorstraße 7", "PLZ": "10709", "Telefon": "85606520", "Zeiten": "ganztags (über 7 bis höchstens 9 Stunden)", "Name": "Kita Mi Nido - Mein Nest" }, "geometry": { "type": "Point", "coordinates": [ 384582.108, 5817771.209 ] } },
{ "type": "Feature", "properties": { "Alter": "1", "Adresse": "Eislebener Straße 4", "PLZ": "10789", "Telefon": "21016551", "Zeiten": "erweitert (über 9 Stunden)", "Name": "Masorti II" }, "geometry": { "type": "Point", "coordinates": [ 386968.527, 5818019.16199999955 ] } },
{ "type": "Feature", "properties": { "Alter": "1", "Adresse": "Pfalzburger Straße 40", "PLZ": "10717", "Telefon": "86390360", "Zeiten": "ganztags (über 7 bis höchstens 9 Stunden)", "Name": "Kita Raduga Pfalzburger Straße" }, "geometry": { "type": "Point", "coordinates": [ 386012.944, 5816725.10699999984 ] } },
{ "type": "Feature", "properties": { "Alter": "1", "Adresse": "Eisenzahnstraße 62", "PLZ": "10709", "Telefon": "01577 3160935", "Zeiten": "ganztags (über 7 bis höchstens 9 Stunden)", "Name": "Kita Kleine Küken" }, "geometry": { "type": "Point", "coordinates": [ 384976.66, 5817787.876 ] } },
{ "type": "Feature", "properties": { "Alter": "1", "Adresse": "Tübinger Straße 9", "PLZ": "10715", "Telefon": "77537177", "Zeiten": "ganztags (über 7 bis höchstens 9 Stunden)", "Name": "Kita Ourania" }, "geometry": { "type": "Point", "coordinates": [ 386643.137, 5815797.596 ] } },
{ "type": "Feature", "properties": { "Alter": "1", "Adresse": "Babelsberger Straße 43", "PLZ": "10715", "Telefon": "8731846", "Zeiten": "ganztags (über 7 bis höchstens 9 Stunden)", "Name": "EKT Kinder - Land in Sicht" }, "geometry": { "type": "Point", "coordinates": [ 386973.401, 5816323.013 ] } },
{ "type": "Feature", "properties": { "Alter": "0", "Adresse": "Westfälische Straße 17", "PLZ": "10709", "Telefon": "860 08 10 30", "Zeiten": "ganztags (über 7 bis höchstens 9 Stunden)", "Name": "Kita Westfälische Straße" }, "geometry": { "type": "Point", "coordinates": [ 385046.196, 5817240.01599999983 ] } },
{ "type": "Feature", "properties": { "Alter": "1", "Adresse": "Münstersche Straße 6", "PLZ": "10709", "Telefon": "21280832", "Zeiten": "erweitert (über 9 Stunden)", "Name": "Kita Gan Israel 2" }, "geometry": { "type": "Point", "coordinates": [ 385102.181, 5817328.19799999986 ] } },
{ "type": "Feature", "properties": { "Alter": "1", "Adresse": "Tübinger Straße 1", "PLZ": "10715", "Telefon": "85 07 37 67", "Zeiten": "ganztags (über 7 bis höchstens 9 Stunden)", "Name": "Kita Tübinger Straße" }, "geometry": { "type": "Point", "coordinates": [ 386622.349, 5815818.49 ] } },
{ "type": "Feature", "properties": { "Alter": "0", "Adresse": "Cunostraße 59 A", "PLZ": "14193", "Telefon": "33986520", "Zeiten": "ganztags (über 7 bis höchstens 9 Stunden)", "Name": "Kita Cunostraße" }, "geometry": { "type": "Point", "coordinates": [ 384339.639, 5816621.838 ] } },
{ "type": "Feature", "properties": { "Alter": "1", "Adresse": "Trautenaustraße 18", "PLZ": "10717", "Telefon": "33844488", "Zeiten": "ganztags (über 7 bis höchstens 9 Stunden)", "Name": "Kita Trautenaustraße" }, "geometry": { "type": "Point", "coordinates": [ 386504.501, 5817121.585 ] } },
{ "type": "Feature", "properties": { "Alter": "1", "Adresse": "Blissestraße 60", "PLZ": "10713", "Telefon": "54291506", "Zeiten": "erweitert (über 9 Stunden)", "Name": "Kita Blissestraße" }, "geometry": { "type": "Point", "coordinates": [ 385915.961, 5815733.94099999964 ] } },
{ "type": "Feature", "properties": { "Alter": "1", "Adresse": "Weinheimer Straße 11", "PLZ": "14199", "Telefon": "0172 4382258", "Zeiten": "teilzeit (über 5 bis höchstens 7 Stunden)", "Name": "Kita auf 4 Pfoten" }, "geometry": { "type": "Point", "coordinates": [ 384052.422, 5815870.77 ] } },
{ "type": "Feature", "properties": { "Alter": "1", "Adresse": "Katharinenstraße 19", "PLZ": "10711", "Telefon": "3648227", "Zeiten": "ganztags (über 7 bis höchstens 9 Stunden)", "Name": "Kita Papillon Rouge" }, "geometry": { "type": "Point", "coordinates": [ 384086.963, 5817992.54899999965 ] } },
{ "type": "Feature", "properties": { "Alter": "1", "Adresse": "Kudowastraße 21", "PLZ": "14193", "Telefon": "54829571", "Zeiten": "ganztags (über 7 bis höchstens 9 Stunden)", "Name": "Kita Gläcksweg" }, "geometry": { "type": "Point", "coordinates": [ 384025.765, 5816432.40099999961 ] } },
{ "type": "Feature", "properties": { "Alter": "1", "Adresse": "Güntzelstraße 30", "PLZ": "10717", "Telefon": "88623734", "Zeiten": "erweitert (über 9 Stunden)", "Name": "Kita mima" }, "geometry": { "type": "Point", "coordinates": [ 386026.668, 5817079.49 ] } },
{ "type": "Feature", "properties": { "Alter": "3", "Adresse": "Nikolsburger Platz 6", "PLZ": "10717", "Telefon": "23396910", "Zeiten": "ganztags (über 7 bis höchstens 9 Stunden)", "Name": "Kita Aventureros" }, "geometry": { "type": "Point", "coordinates": [ 386468.884300859586801, 5817193.217232092283666 ] } },
{ "type": "Feature", "properties": { "Alter": "0", "Adresse": "Brandenburgische Straße 84", "PLZ": "10713", "Telefon": "24613947", "Zeiten": "ganztags (über 7 bis höchstens 9 Stunden)", "Name": "Kita Kleine Küken II" }, "geometry": { "type": "Point", "coordinates": [ 385867.039, 5816545.433 ] } },
{ "type": "Feature", "properties": { "Alter": "1", "Adresse": "Bundesallee 38", "PLZ": "10717", "Telefon": "0176 34405336", "Zeiten": "ganztags (über 7 bis höchstens 9 Stunden)", "Name": "EKT Sankofa" }, "geometry": { "type": "Point", "coordinates": [ 386642.971, 5816658.457 ] } },
{ "type": "Feature", "properties": { "Alter": "1", "Adresse": "Schaperstraße 10", "PLZ": "10719", "Telefon": "0176 49114947", "Zeiten": "ganztags (über 7 bis höchstens 9 Stunden)", "Name": "Kindertagesstätte NEZABUDKI" }, "geometry": { "type": "Point", "coordinates": [ 386786.517, 5817910.16 ] } },
{ "type": "Feature", "properties": { "Alter": "0", "Adresse": "Seesener Straße 44", "PLZ": "10711", "Telefon": "209665750", "Zeiten": "ganztags (über 7 bis höchstens 9 Stunden)", "Name": "Multi Lingua Seesener Str." }, "geometry": { "type": "Point", "coordinates": [ 384165.774, 5817399.858 ] } },
{ "type": "Feature", "properties": { "Alter": "1", "Adresse": "Wexstraße 22", "PLZ": "10715", "Telefon": "25091663", "Zeiten": "ganztags (über 7 bis höchstens 9 Stunden)", "Name": "Kita Kinderkiez" }, "geometry": { "type": "Point", "coordinates": [ 386807.455, 5815602.937 ] } },
{ "type": "Feature", "properties": { "Alter": "0", "Adresse": "Prager Straße 2", "PLZ": "10779", "Telefon": "8618066", "Zeiten": "ganztags (über 7 bis höchstens 9 Stunden)", "Name": "Mini Aventura" }, "geometry": { "type": "Point", "coordinates": [ 386909.773, 5817390.54399999976 ] } },
{ "type": "Feature", "properties": { "Alter": "1", "Adresse": "Paulsborner Straße 10", "PLZ": "10709", "Telefon": "0179 7857294", "Zeiten": "ganztags (über 7 bis höchstens 9 Stunden)", "Name": "Kita ZwergNasen" }, "geometry": { "type": "Point", "coordinates": [ 384863.222, 5817638.59399999958 ] } }
]
}
